GLOBALSTAR M035         
1 25851U 99037A   24365.91238588 -.00000071  00000+0 -28105-3 0  9991
2 25851  51.9965  70.2335 0013904  72.3442  98.6034 11.04534982 77660
GLOBALSTAR M032         
1 25852U 99037B   24365.77821860 -.00000055  00000+0  38450-3 0  9992
2 25852  51.9950 267.3500 0010062 246.2908 113.6836 11.19055141115931
GLOBALSTAR M051         
1 25853U 99037C   24365.59266097 -.00000076  00000+0 -88708-4 0  9994
2 25853  51.9800  87.6048 0000718 221.4040 138.6716 11.42199822113129
GLOBALSTAR M030         
1 25854U 99037D   24365.86035613 -.00000002  00000+0  15374-2 0  9998
2 25854  51.9875 263.7701 0004342  98.2813 261.8496 11.55102137130591
GLOBALSTAR M048         
1 25872U 99041A   24365.76272047 -.00000052  00000+0  47807-3 0  9998
2 25872  51.9397  15.7174 0013260 252.6437 279.0707 11.33852897105876
GLOBALSTAR M026         
1 25873U 99041B   24365.79739049 -.00000024  00000+0  14700-2 0  9996
2 25873  51.9968 190.2196 0001457  23.2395 349.8519 11.06826423129840
GLOBALSTAR M043         
1 25874U 99041C   24365.62953840 -.00000066  00000+0  53059-4 0  9994
2 25874  51.9391 116.9598 0013100  28.9010 344.0463 11.25689130103891
GLOBALSTAR M028         
1 25875U 99041D   24365.43273582 -.00000030  00000+0  45761-3 0  9993
2 25875  51.9645 336.2592 0063651  64.8820 295.8628 12.50573420169069
